<?xml version='1.0' encoding='utf-8'?>
<osm attribution="https://www.openstreetmap.org/copyright" copyright="OpenStreetMap and contributors" generator="OSMnx 2.0.7" license="https://opendatacommons.org/licenses/odbl/1-0/" version="0.6"><bounds minlon="29.7717383" minlat="59.9080513" maxlon="29.781823" maxlat="59.9109337" /><node visible="true" id="16816082" lon="29.7729102" user="OSMnx" lat="59.9102543" changeset="1" version="1" uid="1" timestamp="2026-02-22T19:12:24Z" /><node visible="true" id="16816091" lon="29.7755412" user="OSMnx" lat="59.9098083" changeset="1" version="1" uid="1" timestamp="2026-02-22T19:12:24Z"><tag k="highway" v="traffic_signals" /></node><node visible="true" id="21776755" lon="29.781823" user="OSMnx" lat="59.9084493" changeset="1" version="1" uid="1" timestamp="2026-02-22T19:12:24Z"><tag k="highway" v="traffic_signals" /></node><node visible="true" id="416699071" lon="29.7758641" user="OSMnx" lat="59.9097368" changeset="1" version="1" uid="1" timestamp="2026-02-22T19:12:24Z"><tag k="highway" v="traffic_signals" /></node><node visible="true" id="695899306" lon="29.7750726" user="OSMnx" lat="59.9087976" changeset="1" version="1" uid="1" timestamp="2026-02-22T19:12:24Z" /><node visible="true" id="697106594" lon="29.7792711" user="OSMnx" lat="59.9090045" changeset="1" version="1" uid="1" timestamp="2026-02-22T19:12:24Z" /><node visible="true" id="697106596" lon="29.7764366" user="OSMnx" lat="59.9109337" changeset="1" version="1" uid="1" timestamp="2026-02-22T19:12:24Z" /><node visible="true" id="697106606" lon="29.7769045" user="OSMnx" lat="59.9108207" changeset="1" version="1" uid="1" timestamp="2026-02-22T19:12:24Z" /><node visible="true" id="697106618" lon="29.7751119" user="OSMnx" lat="59.9099011" changeset="1" version="1" uid="1" timestamp="2026-02-22T19:12:24Z" /><node visible="true" id="697106623" lon="29.7770619" user="OSMnx" lat="59.9106593" changeset="1" version="1" uid="1" timestamp="2026-02-22T19:12:24Z" /><node visible="true" id="697106625" lon="29.7770199" user="OSMnx" lat="59.9104965" changeset="1" version="1" uid="1" timestamp="2026-02-22T19:12:24Z" /><node visible="true" id="697106627" lon="29.7766849" user="OSMnx" lat="59.910903" changeset="1" version="1" uid="1" timestamp="2026-02-22T19:12:24Z"><tag k="highway" v="crossing" /></node><node visible="true" id="697106631" lon="29.7759751" user="OSMnx" lat="59.9108318" changeset="1" version="1" uid="1" timestamp="2026-02-22T19:12:24Z" /><node visible="true" id="697106640" lon="29.7758729" user="OSMnx" lat="59.9107496" changeset="1" version="1" uid="1" timestamp="2026-02-22T19:12:24Z" /><node visible="true" id="697106645" lon="29.776804" user="OSMnx" lat="59.910871" changeset="1" version="1" uid="1" timestamp="2026-02-22T19:12:24Z" /><node visible="true" id="697106652" lon="29.7762743" user="OSMnx" lat="59.9109253" changeset="1" version="1" uid="1" timestamp="2026-02-22T19:12:24Z" /><node visible="true" id="697106671" lon="29.7762859" user="OSMnx" lat="59.909645" changeset="1" version="1" uid="1" timestamp="2026-02-22T19:12:24Z" /><node visible="true" id="854836193" lon="29.7724661" user="OSMnx" lat="59.9102685" changeset="1" version="1" uid="1" timestamp="2026-02-22T19:12:24Z" /><node visible="true" id="856037337" lon="29.77762" user="OSMnx" lat="59.9093595" changeset="1" version="1" uid="1" timestamp="2026-02-22T19:12:24Z" /><node visible="true" id="857401790" lon="29.7769897" user="OSMnx" lat="59.9107607" changeset="1" version="1" uid="1" timestamp="2026-02-22T19:12:24Z" /><node visible="true" id="1411368735" lon="29.7811504" user="OSMnx" lat="59.9085956" changeset="1" version="1" uid="1" timestamp="2026-02-22T19:12:24Z" /><node visible="true" id="1411368737" lon="29.7805509" user="OSMnx" lat="59.9087255" changeset="1" version="1" uid="1" timestamp="2026-02-22T19:12:24Z" /><node visible="true" id="1411368740" lon="29.7748192" user="OSMnx" lat="59.9099611" changeset="1" version="1" uid="1" timestamp="2026-02-22T19:12:24Z" /><node visible="true" id="1411368743" lon="29.7736318" user="OSMnx" lat="59.9101993" changeset="1" version="1" uid="1" timestamp="2026-02-22T19:12:24Z" /><node visible="true" id="1662600791" lon="29.7740535" user="OSMnx" lat="59.9080536" changeset="1" version="1" uid="1" timestamp="2026-02-22T19:12:24Z"><tag k="highway" v="crossing" /></node><node visible="true" id="1662600810" lon="29.7752007" user="OSMnx" lat="59.90877" changeset="1" version="1" uid="1" timestamp="2026-02-22T19:12:24Z" /><node visible="true" id="1662600821" lon="29.7757674" user="OSMnx" lat="59.9096134" changeset="1" version="1" uid="1" timestamp="2026-02-22T19:12:24Z"><tag k="highway" v="crossing" /></node><node visible="true" id="1662600839" lon="29.7754479" user="OSMnx" lat="59.9096929" changeset="1" version="1" uid="1" timestamp="2026-02-22T19:12:24Z"><tag k="highway" v="crossing" /></node><node visible="true" id="1663183306" lon="29.7817206" user="OSMnx" lat="59.9082991" changeset="1" version="1" uid="1" timestamp="2026-02-22T19:12:24Z"><tag k="highway" v="crossing" /></node><node visible="true" id="1663183324" lon="29.7815792" user="OSMnx" lat="59.9085017" changeset="1" version="1" uid="1" timestamp="2026-02-22T19:12:24Z"><tag k="highway" v="crossing" /></node><node visible="true" id="1663183347" lon="29.7763493" user="OSMnx" lat="59.9097219" changeset="1" version="1" uid="1" timestamp="2026-02-22T19:12:24Z"><tag k="highway" v="crossing" /></node><node visible="true" id="1663183355" lon="29.7751789" user="OSMnx" lat="59.9099718" changeset="1" version="1" uid="1" timestamp="2026-02-22T19:12:24Z"><tag k="highway" v="crossing" /></node><node visible="true" id="1663191371" lon="29.7760943" user="OSMnx" lat="59.9096889" changeset="1" version="1" uid="1" timestamp="2026-02-22T19:12:24Z"><tag k="highway" v="crossing" /></node><node visible="true" id="1663191388" lon="29.7753499" user="OSMnx" lat="59.9098493" changeset="1" version="1" uid="1" timestamp="2026-02-22T19:12:24Z"><tag k="highway" v="crossing" /></node><node visible="true" id="1684552173" lon="29.7734389" user="OSMnx" lat="59.9102192" changeset="1" version="1" uid="1" timestamp="2026-02-22T19:12:24Z" /><node visible="true" id="1684552179" lon="29.7770613" user="OSMnx" lat="59.9105894" changeset="1" version="1" uid="1" timestamp="2026-02-22T19:12:24Z" /><node visible="true" id="1684552180" lon="29.7770326" user="OSMnx" lat="59.910715" changeset="1" version="1" uid="1" timestamp="2026-02-22T19:12:24Z" /><node visible="true" id="1684552183" lon="29.7760931" user="OSMnx" lat="59.9108845" changeset="1" version="1" uid="1" timestamp="2026-02-22T19:12:24Z" /><node visible="true" id="1939380950" lon="29.7756041" user="OSMnx" lat="59.90869" changeset="1" version="1" uid="1" timestamp="2026-02-22T19:12:24Z" /><node visible="true" id="1939413063" lon="29.7737546" user="OSMnx" lat="59.9101763" changeset="1" version="1" uid="1" timestamp="2026-02-22T19:12:24Z" /><node visible="true" id="2123861775" lon="29.7745261" user="OSMnx" lat="59.9086079" changeset="1" version="1" uid="1" timestamp="2026-02-22T19:12:24Z" /><node visible="true" id="2123861782" lon="29.7748857" user="OSMnx" lat="59.9090287" changeset="1" version="1" uid="1" timestamp="2026-02-22T19:12:24Z" /><node visible="true" id="2123861797" lon="29.7741325" user="OSMnx" lat="59.910104" changeset="1" version="1" uid="1" timestamp="2026-02-22T19:12:24Z" /><node visible="true" id="2123873070" lon="29.7808692" user="OSMnx" lat="59.9086585" changeset="1" version="1" uid="1" timestamp="2026-02-22T19:12:24Z" /><node visible="true" id="2123886257" lon="29.778571" user="OSMnx" lat="59.9080513" changeset="1" version="1" uid="1" timestamp="2026-02-22T19:12:24Z" /><node visible="true" id="2123886258" lon="29.7778527" user="OSMnx" lat="59.9082034" changeset="1" version="1" uid="1" timestamp="2026-02-22T19:12:24Z" /><node visible="true" id="2123886260" lon="29.7771853" user="OSMnx" lat="59.9083422" changeset="1" version="1" uid="1" timestamp="2026-02-22T19:12:24Z" /><node visible="true" id="2123886262" lon="29.7786774" user="OSMnx" lat="59.9091322" changeset="1" version="1" uid="1" timestamp="2026-02-22T19:12:24Z" /><node visible="true" id="2123886263" lon="29.7779506" user="OSMnx" lat="59.9092867" changeset="1" version="1" uid="1" timestamp="2026-02-22T19:12:24Z" /><node visible="true" id="2124154592" lon="29.7799683" user="OSMnx" lat="59.9088518" changeset="1" version="1" uid="1" timestamp="2026-02-22T19:12:24Z" /><node visible="true" id="2124191603" lon="29.7717383" user="OSMnx" lat="59.9102985" changeset="1" version="1" uid="1" timestamp="2026-02-22T19:12:24Z" /><node visible="true" id="2503989426" lon="29.7780482" user="OSMnx" lat="59.9081622" changeset="1" version="1" uid="1" timestamp="2026-02-22T19:12:24Z" /><node visible="true" id="2503989429" lon="29.7768642" user="OSMnx" lat="59.9084134" changeset="1" version="1" uid="1" timestamp="2026-02-22T19:12:24Z" /><node visible="true" id="5150468463" lon="29.7767814" user="OSMnx" lat="59.9102211" changeset="1" version="1" uid="1" timestamp="2026-02-22T19:12:24Z" /><node visible="true" id="5150468477" lon="29.7756271" user="OSMnx" lat="59.9104741" changeset="1" version="1" uid="1" timestamp="2026-02-22T19:12:24Z" /><node visible="true" id="5233763946" lon="29.7767932" user="OSMnx" lat="59.9084294" changeset="1" version="1" uid="1" timestamp="2026-02-22T19:12:24Z" /><node visible="true" id="5233763956" lon="29.7760725" user="OSMnx" lat="59.9085892" changeset="1" version="1" uid="1" timestamp="2026-02-22T19:12:24Z" /><node visible="true" id="5738980946" lon="29.77705" user="OSMnx" lat="59.910543" changeset="1" version="1" uid="1" timestamp="2026-02-22T19:12:24Z" /><node visible="true" id="5738980947" lon="29.776036" user="OSMnx" lat="59.9108618" changeset="1" version="1" uid="1" timestamp="2026-02-22T19:12:24Z" /><node visible="true" id="5738980948" lon="29.7761568" user="OSMnx" lat="59.9109021" changeset="1" version="1" uid="1" timestamp="2026-02-22T19:12:24Z" /><node visible="true" id="5738980949" lon="29.7759194" user="OSMnx" lat="59.9107959" changeset="1" version="1" uid="1" timestamp="2026-02-22T19:12:24Z" /><node visible="true" id="5738980950" lon="29.7763338" user="OSMnx" lat="59.910931" changeset="1" version="1" uid="1" timestamp="2026-02-22T19:12:24Z" /><node visible="true" id="5738980951" lon="29.7765377" user="OSMnx" lat="59.9109262" changeset="1" version="1" uid="1" timestamp="2026-02-22T19:12:24Z" /><node visible="true" id="7837153290" lon="29.7766986" user="OSMnx" lat="59.9108994" changeset="1" version="1" uid="1" timestamp="2026-02-22T19:12:24Z" /><node visible="true" id="7837158297" lon="29.7767462" user="OSMnx" lat="59.9108873" changeset="1" version="1" uid="1" timestamp="2026-02-22T19:12:24Z" /><node visible="true" id="7837158298" lon="29.7766128" user="OSMnx" lat="59.9109162" changeset="1" version="1" uid="1" timestamp="2026-02-22T19:12:24Z" /><node visible="true" id="7881057540" lon="29.7762239" user="OSMnx" lat="59.9109175" changeset="1" version="1" uid="1" timestamp="2026-02-22T19:12:24Z" /><node visible="true" id="10050934772" lon="29.7759835" user="OSMnx" lat="59.9086082" changeset="1" version="1" uid="1" timestamp="2026-02-22T19:12:24Z" /><node visible="true" id="12971950631" lon="29.7731906" user="OSMnx" lat="59.9102391" changeset="1" version="1" uid="1" timestamp="2026-02-22T19:12:24Z" /><node visible="true" id="13277935189" lon="29.7739181" user="OSMnx" lat="59.9101482" changeset="1" version="1" uid="1" timestamp="2026-02-22T19:12:24Z" /><way user="OSMnx" visible="true" id="31367674" changeset="1" version="1" uid="1" timestamp="2026-02-22T19:12:24Z"><nd ref="16816091" /><nd ref="1662600839" /><nd ref="2123861782" /><nd ref="2123861775" /><nd ref="1662600791" /><tag k="lanes" v="2" /><tag k="oneway" v="yes" /><tag k="name" v="улица Победы" /><tag k="highway" v="secondary" /></way><way user="OSMnx" visible="true" id="35033131" changeset="1" version="1" uid="1" timestamp="2026-02-22T19:12:24Z"><nd ref="21776755" /><nd ref="1663183306" /><tag k="lanes" v="2" /><tag k="oneway" v="no" /><tag k="name" v="улица Красного Флота" /><tag k="maxspeed" v="RU:urban" /><tag k="highway" v="tertiary" /></way><way user="OSMnx" visible="true" id="35560828" changeset="1" version="1" uid="1" timestamp="2026-02-22T19:12:24Z"><nd ref="695899306" /><nd ref="1662600821" /><nd ref="416699071" /><tag k="lanes" v="2" /><tag k="oneway" v="yes" /><tag k="name" v="улица Победы" /><tag k="highway" v="secondary" /></way><way user="OSMnx" visible="true" id="55389777" changeset="1" version="1" uid="1" timestamp="2026-02-22T19:12:24Z"><nd ref="2123886257" /><nd ref="2503989426" /><nd ref="2123886258" /><nd ref="2123886260" /><nd ref="2503989429" /><nd ref="5233763946" /><nd ref="5233763956" /><nd ref="10050934772" /><nd ref="1939380950" /><nd ref="1662600810" /><nd ref="695899306" /><tag k="lanes" v="1" /><tag k="oneway" v="no" /><tag k="name" v="Профсоюзная улица" /><tag k="maxspeed" v="RU:urban" /><tag k="highway" v="residential" /></way><way user="OSMnx" visible="true" id="55468501" changeset="1" version="1" uid="1" timestamp="2026-02-22T19:12:24Z"><nd ref="697106671" /><nd ref="1663183347" /><nd ref="5150468463" /><nd ref="697106625" /><nd ref="5738980946" /><nd ref="1684552179" /><nd ref="697106623" /><nd ref="1684552180" /><nd ref="857401790" /><nd ref="697106606" /><nd ref="697106645" /><nd ref="7837158297" /><nd ref="7837153290" /><nd ref="697106627" /><nd ref="7837158298" /><nd ref="5738980951" /><nd ref="697106596" /><nd ref="5738980950" /><nd ref="697106652" /><nd ref="7881057540" /><nd ref="5738980948" /><nd ref="1684552183" /><nd ref="5738980947" /><nd ref="697106631" /><nd ref="5738980949" /><nd ref="697106640" /><nd ref="5150468477" /><nd ref="1663183355" /><nd ref="697106618" /><tag k="oneway" v="no" /><tag k="maxspeed" v="40" /><tag k="highway" v="residential" /></way><way user="OSMnx" visible="true" id="127551636" changeset="1" version="1" uid="1" timestamp="2026-02-22T19:12:24Z"><nd ref="416699071" /><nd ref="1663191371" /><nd ref="697106671" /><tag k="lanes" v="2" /><tag k="oneway" v="no" /><tag k="name" v="Александровская улица" /><tag k="highway" v="secondary" /></way><way user="OSMnx" visible="true" id="127551641" changeset="1" version="1" uid="1" timestamp="2026-02-22T19:12:24Z"><nd ref="16816091" /><nd ref="416699071" /><tag k="lanes" v="2" /><tag k="oneway" v="no" /><tag k="name" v="Александровская улица" /><tag k="highway" v="secondary" /></way><way user="OSMnx" visible="true" id="205370315" changeset="1" version="1" uid="1" timestamp="2026-02-22T19:12:24Z"><nd ref="697106671" /><nd ref="856037337" /><nd ref="2123886263" /><nd ref="2123886262" /><nd ref="697106594" /><nd ref="2124154592" /><nd ref="1411368737" /><nd ref="2123873070" /><nd ref="1411368735" /><nd ref="1663183324" /><nd ref="21776755" /><tag k="lanes" v="2" /><tag k="oneway" v="no" /><tag k="name" v="Александровская улица" /><tag k="maxspeed" v="RU:urban" /><tag k="highway" v="secondary" /></way><way user="OSMnx" visible="true" id="205370316" changeset="1" version="1" uid="1" timestamp="2026-02-22T19:12:24Z"><nd ref="697106618" /><nd ref="1663191388" /><nd ref="16816091" /><tag k="lanes" v="2" /><tag k="oneway" v="no" /><tag k="name" v="Александровская улица" /><tag k="highway" v="secondary" /></way><way user="OSMnx" visible="true" id="1088778167" changeset="1" version="1" uid="1" timestamp="2026-02-22T19:12:24Z"><nd ref="1411368743" /><nd ref="1939413063" /><nd ref="13277935189" /><nd ref="2123861797" /><nd ref="1411368740" /><nd ref="697106618" /><tag k="lanes" v="2" /><tag k="oneway" v="no" /><tag k="name" v="Александровская улица" /><tag k="maxspeed" v="RU:urban" /><tag k="highway" v="secondary" /></way><way user="OSMnx" visible="true" id="1370080925" changeset="1" version="1" uid="1" timestamp="2026-02-22T19:12:24Z"><nd ref="2124191603" /><nd ref="854836193" /><tag k="lanes" v="2" /><tag k="oneway" v="no" /><tag k="name" v="Александровская улица" /><tag k="maxspeed" v="RU:urban" /><tag k="highway" v="secondary" /></way><way user="OSMnx" visible="true" id="1370080926" changeset="1" version="1" uid="1" timestamp="2026-02-22T19:12:24Z"><nd ref="854836193" /><nd ref="16816082" /><nd ref="12971950631" /><nd ref="1684552173" /><nd ref="1411368743" /><tag k="lanes" v="2" /><tag k="oneway" v="no" /><tag k="name" v="Александровская улица" /><tag k="maxspeed" v="RU:urban" /><tag k="highway" v="secondary" /></way></osm>